SUOMI NPP               
1 37849U 11061A   26194.63179894  .00000000  00000+0  20917-4 0  9991
2 37849  98.7956 135.3280 0000681 223.8511 136.2611 14.19522375762190
YAOGAN-12               
1 37875U 11066B   26194.61323373  .00005367  00000+0  20552-3 0  9991
2 37875  97.1134 231.9411 0010943 127.0118 233.2125 15.26886528816076
BEIDOU-2 M4             
1 38251U 12018B   26194.43198869 -.00000068  00000+0  00000+0 0  9994
2 38251  55.6338 303.2030 0012087 272.4400  87.4432  1.86229496 96436
ARIRANG-3 (KOMPSAT-3)   
1 38338U 12025B   26194.58356314  .00000186  00000+0  46229-4 0  9993
2 38338  98.1184 151.5904 0006314  43.1047 317.0648 14.62228208755209
METOP-B                 
1 38771U 12049A   26194.58619620  .00000051  00000+0  43077-4 0  9991
2 38771  98.6491 245.5569 0001067 265.3070  94.7985 14.21446095717012
SJ-9A                   
1 38860U 12056A   26194.56913915  .00000536  00000+0  67775-4 0  9999
2 38860  97.6727 165.5698 0025827 167.0735 193.1149 14.85526718703508
COSMOS 2484 (RODNIK-S 6)
1 39059U 13001C   26194.54793215  .00000098  00000+0  63343-3 0  9997
2 39059  82.4996 205.5033 0025723 339.2972  20.7064 12.42940606611830
SARAL                   
1 39086U 13009A   26194.64608838  .00000041  00000+0  30927-4 0  9993
2 39086  98.5554  20.8787 0001604 170.5930 189.5285 14.32895557699395
STRAND-1                
1 39090U 13009E   26194.44253241  .00000142  00000+0  62098-4 0  9996
2 39090  98.3932  14.0322 0009320 145.9311 214.2476 14.37178253700832
BRITE-AUSTRIA           
1 39091U 13009F   26194.46679952  .00000086  00000+0  43851-4 0  9993
2 39091  98.4006  13.2537 0010666 155.6045 204.5649 14.36552090700829
GAOFEN-1                
1 39150U 13018A   26194.62795319  .00000636  00000+0  98385-4 0  9996
2 39150  97.9093 266.1570 0016927 176.1151 184.0194 14.76518524712146
NEE-01 PEGASO           
1 39151U 13018B   26194.39084083  .00001042  00000+0  10395-3 0  9996
2 39151  98.1250 339.4132 0013672  79.6258 280.6501 14.93784279714612
PROBA-V                 
1 39159U 13021A   26194.40558917  .00000023  00000+0  28002-4 0  9995
2 39159  98.3605 171.7202 0005306  64.1776 295.9950 14.23603272684844
ARIRANG-5 (KOMPSAT-5)   
1 39227U 13042A   26194.56982082  .00000555  00000+0  43940-4 0  9993
2 39227  97.6210  20.9002 0005576  63.3865 296.7931 15.04523893707828
GONETS-M 5              
1 39249U 13048A   26194.59837309 -.00000018  00000+0 -20062-3 0  9992
2 39249  82.4846 326.9159 0017281 152.9749 207.2234 12.42892459582160
GONETS-M 7              
1 39251U 13048C   26194.64134582 -.00000027  00000+0 -26359-3 0  9999
2 39251  82.4912 329.8252 0018058 154.1737 206.0248 12.42915304582120
FENGYUN 3C              
1 39260U 13052A   26194.61699275  .00000020  00000+0  31549-4 0  9995
2 39260  98.4997 167.2807 0013741 310.8487  49.1496 14.15760506662301
CASSIOPE                
1 39265U 13055A   26194.51456766  .00021565 -53801-6  23124-3 0  9999
2 39265  80.9124  34.6894 0283196 333.6039  25.0990 15.27349248671689
APRIZESAT 7             
1 39416U 13066A   26194.45095904  .00000434  00000+0  48317-4 0  9994
2 39416  97.7721 147.2959 0037130 122.8826 237.5975 14.91617048685141
ZACUBE-1 (TSHEPISOSAT)  
1 39417U 13066B   26194.46840326  .00001341  00000+0  10703-3 0  9997
2 39417  97.8010 156.9353 0043931 160.7484 199.5412 15.01324440684679
APRIZESAT 8             
1 39425U 13066K   26194.64207120  .00000381  00000+0  47310-4 0  9993
2 39425  97.8230 141.7432 0045359 197.0303 162.9394 14.87695060683608
